{
    "links": {
        "self": "http://www.neowsapp.com/rest/v1/neo/3371670?api_key=iIulBulltgU6a56xZRHN4H3l9WmuAYTsLGpBGhQ2"
    },
    "id": "3371670",
    "neo_reference_id": "3371670",
    "name": "(2007 FG1)",
    "designation": "2007 FG1",
    "nasa_jpl_url": "http://ssd.jpl.nasa.gov/sbdb.cgi?sstr=3371670",
    "absolute_magnitude_h": 24.6,
    "estimated_diameter": {
        "kilometers": {
            "estimated_diameter_min": 0.0319561887,
            "estimated_diameter_max": 0.0714562102
        },
        "meters": {
            "estimated_diameter_min": 31.9561886721,
            "estimated_diameter_max": 71.4562101727
        },
        "miles": {
            "estimated_diameter_min": 0.0198566489,
            "estimated_diameter_max": 0.0444008168
        },
        "feet": {
            "estimated_diameter_min": 104.8431420431,
            "estimated_diameter_max": 234.436392583
        }
    },
    "is_potentially_hazardous_asteroid": false,
    "close_approach_data": [
        {
            "close_approach_date": "1923-03-20",
            "close_approach_date_full": "1923-Mar-20 00:08",
            "epoch_date_close_approach": -1476489120000,
            "relative_velocity": {
                "kilometers_per_second": "8.0243289258",
                "kilometers_per_hour": "28887.5841329416",
                "miles_per_hour": "17949.6213741603"
            },
            "miss_distance": {
                "astronomical": "0.0242449781",
                "lunar": "9.4312964809",
                "kilometers": "3626997.081956647",
                "miles": "2253711.4807378486"
            },
            "orbiting_body": "Earth"
        },
        {
            "close_approach_date": "2007-03-21",
            "close_approach_date_full": "2007-Mar-21 09:07",
            "epoch_date_close_approach": 1174468020000,
            "relative_velocity": {
                "kilometers_per_second": "8.0536415418",
                "kilometers_per_hour": "28993.1095504183",
                "miles_per_hour": "18015.1907648141"
            },
            "miss_distance": {
                "astronomical": "0.0251270629",
                "lunar": "9.7744274681",
                "kilometers": "3758955.089196023",
                "miles": "2335706.3842821974"
            },
            "orbiting_body": "Earth"
        },
        {
            "close_approach_date": "2056-02-04",
            "close_approach_date_full": "2056-Feb-04 16:25",
            "epoch_date_close_approach": 2716907100000,
            "relative_velocity": {
                "kilometers_per_second": "19.1555305638",
                "kilometers_per_hour": "68959.91002973",
                "miles_per_hour": "42849.0063181953"
            },
            "miss_distance": {
                "astronomical": "0.4257795537",
                "lunar": "165.6282463893",
                "kilometers": "63695714.323070619",
                "miles": "39578681.5925037822"
            },
            "orbiting_body": "Earth"
        },
        {
            "close_approach_date": "2064-05-21",
            "close_approach_date_full": "2064-May-21 13:28",
            "epoch_date_close_approach": 2978602080000,
            "relative_velocity": {
                "kilometers_per_second": "20.4234810569",
                "kilometers_per_hour": "73524.5318049091",
                "miles_per_hour": "45685.2847762226"
            },
            "miss_distance": {
                "astronomical": "0.4863162664",
                "lunar": "189.1770276296",
                "kilometers": "72751877.599792568",
                "miles": "45205920.5141227184"
            },
            "orbiting_body": "Earth"
        }
    ],
    "orbital_data": {
        "orbit_id": "9",
        "orbit_determination_date": "2017-04-06 09:06:42",
        "first_observation_date": "2007-03-17",
        "last_observation_date": "2007-03-23",
        "data_arc_in_days": 6,
        "observations_used": 27,
        "orbit_uncertainty": "8",
        "minimum_orbit_intersection": ".0219211",
        "jupiter_tisserand_invariant": "3.733",
        "epoch_osculation": "2454178.5",
        "eccentricity": ".4784005716772833",
        "semi_major_axis": "1.946481541040971",
        "inclination": "9.303028283001037",
        "ascending_node_longitude": "175.4740473894935",
        "orbital_period": "991.913637323113",
        "perihelion_distance": "1.015283659047691",
        "perihelion_argument": "6.878810026117906",
        "aphelion_distance": "2.87767942303425",
        "perihelion_time": "2454183.098600999247",
        "mean_anomaly": "358.3310075621134",
        "mean_motion": ".3629348226036447",
        "equinox": "J2000",
        "orbit_class": {
            "orbit_class_type": "APO",
            "orbit_class_description": "Near-Earth asteroid orbits which cross the Earth’s orbit similar to that of 1862 Apollo",
            "orbit_class_range": "a (semi-major axis) > 1.0 AU; q (perihelion) < 1.017 AU"
        }
    },
    "is_sentry_object": false
}